{"type": "FeatureCollection", "features": [ {"type": "Feature", "properties": {"norad_id": 35194, "name": "FENGYUN 1C DEB", "group": "fengyun-1c-debris", "lat": -9.393301019466232, "lon": 62.74892605326303, "alt_km": 723.8844655612829, "timestamp": "2025-12-04T13:52:00.730262+00:00", "meta": {"OBJECT_NAME": "FENGYUN 1C DEB", "OBJECT_ID": "1999-025DPA", "EPOCH": "2025-12-03T11:35:48.411744", "MEAN_MOTION": 14.6015503, "ECCENTRICITY": 0.01150514, "INCLINATION": 98.9499, "RA_OF_ASC_NODE": 60.0738, "ARG_OF_PERICENTER": 104.0721, "MEAN_ANOMALY": 257.3297, "EPHEMERIS_TYPE": 0, "CLASSIFICATION_TYPE": "U", "NORAD_CAT_ID": 35194, "ELEMENT_SET_NO": 999, "REV_AT_EPOCH": 65255, "BSTAR": 0.0013414517, "MEAN_MOTION_DOT": 7.036e-05, "MEAN_MOTION_DDOT": 0}, "tle": {"line1": "1 35194U 99025DPA 25337.48319921  .00007036  00000+0  13415-2 0  9995", "line2": "2 35194  98.9499  60.0738 0115051 104.0721 257.3297 14.60155030652557"}}, "geometry": {"type": "Point", "coordinates": [62.74892605326303, -9.393301019466232]}}, {"type": "Feature", "properties": {"norad_id": 35195, "name": "FENGYUN 1C DEB", "group": "fengyun-1c-debris", "lat": 53.89805449142611, "lon": -95.18641294851649, "alt_km": 638.5475828658828, "timestamp": "2025-12-04T13:52:00.730272+00:00", "meta": {"OBJECT_NAME": "FENGYUN 1C DEB", "OBJECT_ID": "1999-025DPB", "EPOCH": "2025-12-03T12:33:41.840352", "MEAN_MOTION": 14.55899933, "ECCENTRICITY": 0.01040396, "INCLINATION": 98.9842, "RA_OF_ASC_NODE": 71.1499, "ARG_OF_PERICENTER": 96.2611, "MEAN_ANOMALY": 265.0447, "EPHEMERIS_TYPE": 0, "CLASSIFICATION_TYPE": "U", "NORAD_CAT_ID": 35195, "ELEMENT_SET_NO": 999, "REV_AT_EPOCH": 90792, "BSTAR": 0.0012811423, "MEAN_MOTION_DOT": 6e-05, "MEAN_MOTION_DDOT": 0}, "tle": {"line1": "1 35195U 99025DPB 25337.52340093  .00006000  00000+0  12811-2 0  9994", "line2": "2 35195  98.9842  71.1499 0104039  96.2611 265.0447 14.55899933907929"}}, "geometry": {"type": "Point", "coordinates": [-95.18641294851649, 53.89805449142611]}}, {"type": "Feature", "properties": {"norad_id": 35196, "name": "FENGYUN 1C DEB", "group": "fengyun-1c-debris", "lat": -49.886760194611746, "lon": 163.76316430457342, "alt_km": 933.8316095034415, "timestamp": "2025-12-04T13:52:00.730282+00:00", "meta": {"OBJECT_NAME": "FENGYUN 1C DEB", "OBJECT_ID": "1999-025DPC", "EPOCH": "2025-12-03T19:00:32.594688", "MEAN_MOTION": 14.19718671, "ECCENTRICITY": 0.02150271, "INCLINATION": 98.5365, "RA_OF_ASC_NODE": 353.2746, "ARG_OF_PERICENTER": 4.3105, "MEAN_ANOMALY": 174.4808, "EPHEMERIS_TYPE": 0, "CLASSIFICATION_TYPE": "U", "NORAD_CAT_ID": 35196, "ELEMENT_SET_NO": 999, "REV_AT_EPOCH": 89007, "BSTAR": 0.0013252463, "MEAN_MOTION_DOT": 3.49e-05, "MEAN_MOTION_DDOT": 0}, "tle": {"line1": "1 35196U 99025DPC 25337.79204392  .00003490  00000+0  13252-2 0  9995", "line2": "2 35196  98.5365 353.2746 0215027   4.3105 174.4808 14.19718671890073"}}, "geometry": {"type": "Point", "coordinates": [163.76316430457342, -49.886760194611746]}}, {"type": "Feature", "properties": {"norad_id": 35200, "name": "FENGYUN 1C DEB", "group": "fengyun-1c-debris", "lat": 78.6795199786268, "lon": -94.28539998524165, "alt_km": 830.5276571544237, "timestamp": "2025-12-04T13:52:00.730293+00:00", "meta": {"OBJECT_NAME": "FENGYUN 1C DEB", "OBJECT_ID": "1999-025DPG", "EPOCH": "2025-12-04T04:50:38.257152", "MEAN_MOTION": 13.41951597, "ECCENTRICITY": 0.03532708, "INCLINATION": 98.8685, "RA_OF_ASC_NODE": 316.6331, "ARG_OF_PERICENTER": 81.7228, "MEAN_ANOMALY": 345.7831, "EPHEMERIS_TYPE": 0, "CLASSIFICATION_TYPE": "U", "NORAD_CAT_ID": 35200, "ELEMENT_SET_NO": 999, "REV_AT_EPOCH": 65789, "BSTAR": 0.00065220404, "MEAN_MOTION_DOT": 4.95e-06, "MEAN_MOTION_DDOT": 0}, "tle": {"line1": "1 35200U 99025DPG 25338.20183168  .00000495  00000+0  65220-3 0  9990", "line2": "2 35200  98.8685 316.6331 0353270  81.7228 345.7831 13.41951597657898"}}, "geometry": {"type": "Point", "coordinates": [-94.28539998524165, 78.6795199786268]}}, {"type": "Feature", "properties": {"norad_id": 35201, "name": "FENGYUN 1C DEB", "group": "fengyun-1c-debris", "lat": 33.32313111592911, "lon": 173.6466173820861, "alt_km": 856.3807301542656, "timestamp": "2025-12-04T13:52:00.730303+00:00", "meta": {"OBJECT_NAME": "FENGYUN 1C DEB", "OBJECT_ID": "1999-025DPH", "EPOCH": "2025-12-03T19:18:47.960064", "MEAN_MOTION": 14.11046817, "ECCENTRICITY": 0.00057692, "INCLINATION": 98.7084, "RA_OF_ASC_NODE": 347.1138, "ARG_OF_PERICENTER": 278.9362, "MEAN_ANOMALY": 262.4631, "EPHEMERIS_TYPE": 0, "CLASSIFICATION_TYPE": "U", "NORAD_CAT_ID": 35201, "ELEMENT_SET_NO": 999, "REV_AT_EPOCH": 86893, "BSTAR": 0.00014168849, "MEAN_MOTION_DOT": 2.12e-06, "MEAN_MOTION_DDOT": 0}, "tle": {"line1": "1 35201U 99025DPH 25337.80472176  .00000212  00000+0  14169-3 0  9999", "line2": "2 35201  98.7084 347.1138 0005769 278.9362 262.4631 14.11046817868931"}}, "geometry": {"type": "Point", "coordinates": [173.6466173820861, 33.32313111592911]}}, {"type": "Feature", "properties": {"norad_id": 35202, "name": "FENGYUN 1C DEB", "group": "fengyun-1c-debris", "lat": 9.421556588991853, "lon": -154.6040365311164, "alt_km": 1349.422194465149, "timestamp": "2025-12-04T13:52:00.730313+00:00", "meta": {"OBJECT_NAME": "FENGYUN 1C DEB", "OBJECT_ID": "1999-025DPJ", "EPOCH": "2025-11-30T10:05:49.025184", "MEAN_MOTION": 13.34730307, "ECCENTRICITY": 0.03739167, "INCLINATION": 100.0942, "RA_OF_ASC_NODE": 19.5924, "ARG_OF_PERICENTER": 37.6604, "MEAN_ANOMALY": 325.0083, "EPHEMERIS_TYPE": 0, "CLASSIFICATION_TYPE": "U", "NORAD_CAT_ID": 35202, "ELEMENT_SET_NO": 999, "REV_AT_EPOCH": 56812, "BSTAR": 0.00081043758, "MEAN_MOTION_DOT": 5.61e-06, "MEAN_MOTION_DDOT": 0}, "tle": {"line1": "1 35202U 99025DPJ 25334.42070631  .00000561  00000+0  81044-3 0  9998", "line2": "2 35202 100.0942  19.5924 0373916  37.6604 325.0083 13.34730307568129"}}, "geometry": {"type": "Point", "coordinates": [-154.6040365311164, 9.421556588991853]}}, {"type": "Feature", "properties": {"norad_id": 35203, "name": "FENGYUN 1C DEB", "group": "fengyun-1c-debris", "lat": 47.456633791885245, "lon": 137.69711639962017, "alt_km": 879.0360279703464, "timestamp": "2025-12-04T13:52:00.730323+00:00", "meta": {"OBJECT_NAME": "FENGYUN 1C DEB", "OBJECT_ID": "1999-025DPK", "EPOCH": "2025-12-03T15:27:54.802656", "MEAN_MOTION": 13.26388457, "ECCENTRICITY": 0.05116747, "INCLINATION": 102.0734, "RA_OF_ASC_NODE": 303.1231, "ARG_OF_PERICENTER": 179.2768, "MEAN_ANOMALY": 180.9196, "EPHEMERIS_TYPE": 0, "CLASSIFICATION_TYPE": "U", "NORAD_CAT_ID": 35203, "ELEMENT_SET_NO": 999, "REV_AT_EPOCH": 59530, "BSTAR": 0.0023783479, "MEAN_MOTION_DOT": 2.085e-05, "MEAN_MOTION_DDOT": 0}, "tle": {"line1": "1 35203U 99025DPK 25337.64438429  .00002085  00000+0  23783-2 0  9997", "line2": "2 35203 102.0734 303.1231 0511674 179.2768 180.9196 13.26388457595302"}}, "geometry": {"type": "Point", "coordinates": [137.69711639962017, 47.456633791885245]}}, {"type": "Feature", "properties": {"norad_id": 35204, "name": "FENGYUN 1C DEB", "group": "fengyun-1c-debris", "lat": 31.08519618169961, "lon": 161.08635623886494, "alt_km": 708.4537687362872, "timestamp": "2025-12-04T13:52:00.730352+00:00", "meta": {"OBJECT_NAME": "FENGYUN 1C DEB", "OBJECT_ID": "1999-025DPL", "EPOCH": "2025-12-03T00:17:34.201824", "MEAN_MOTION": 14.4851708, "ECCENTRICITY": 0.00393907, "INCLINATION": 99.0057, "RA_OF_ASC_NODE": 164.9047, "ARG_OF_PERICENTER": 352.2699, "MEAN_ANOMALY": 159.62, "EPHEMERIS_TYPE": 0, "CLASSIFICATION_TYPE": "U", "NORAD_CAT_ID": 35204, "ELEMENT_SET_NO": 999, "REV_AT_EPOCH": 90789, "BSTAR": 0.0029447199, "MEAN_MOTION_DOT": 0.00011129, "MEAN_MOTION_DDOT": 0}, "tle": {"line1": "1 35204U 99025DPL 25337.01220141  .00011129  00000+0  29447-2 0  9991", "line2": "2 35204  99.0057 164.9047 0039390 352.2699 159.6200 14.48517080907891"}}, "geometry": {"type": "Point", "coordinates": [161.08635623886494, 31.08519618169961]}}, {"type": "Feature", "properties": {"norad_id": 35207, "name": "FENGYUN 1C DEB", "group": "fengyun-1c-debris", "lat": 68.66426020320613, "lon": -80.3734512231915, "alt_km": 740.3985693014938, "timestamp": "2025-12-04T13:52:00.730363+00:00", "meta": {"OBJECT_NAME": "FENGYUN 1C DEB", "OBJECT_ID": "1999-025DPP", "EPOCH": "2025-11-29T17:50:26.900160", "MEAN_MOTION": 14.55080945, "ECCENTRICITY": 0.0054743, "INCLINATION": 98.6905, "RA_OF_ASC_NODE": 71.5483, "ARG_OF_PERICENTER": 294.9923, "MEAN_ANOMALY": 64.5593, "EPHEMERIS_TYPE": 0, "CLASSIFICATION_TYPE": "U", "NORAD_CAT_ID": 35207, "ELEMENT_SET_NO": 999, "REV_AT_EPOCH": 64715, "BSTAR": 0.0019605249, "MEAN_MOTION_DOT": 8.586e-05, "MEAN_MOTION_DDOT": 0}, "tle": {"line1": "1 35207U 99025DPP 25333.74336690  .00008586  00000+0  19605-2 0  9995", "line2": "2 35207  98.6905  71.5483 0054743 294.9923  64.5593 14.55080945647151"}}, "geometry": {"type": "Point", "coordinates": [-80.3734512231915, 68.66426020320613]}}, {"type": "Feature", "properties": {"norad_id": 35208, "name": "FENGYUN 1C DEB", "group": "fengyun-1c-debris", "lat": -65.53015615168293, "lon": 18.152836149237885, "alt_km": 931.5092425644534, "timestamp": "2025-12-04T13:52:00.730373+00:00", "meta": {"OBJECT_NAME": "FENGYUN 1C DEB", "OBJECT_ID": "1999-025DPQ", "EPOCH": "2025-11-27T19:11:53.318688", "MEAN_MOTION": 13.99599013, "ECCENTRICITY": 0.01006373, "INCLINATION": 98.9056, "RA_OF_ASC_NODE": 351.4058, "ARG_OF_PERICENTER": 197.6504, "MEAN_ANOMALY": 162.1154, "EPHEMERIS_TYPE": 0, "CLASSIFICATION_TYPE": "U", "NORAD_CAT_ID": 35208, "ELEMENT_SET_NO": 999, "REV_AT_EPOCH": 90354, "BSTAR": 0.00091687477, "MEAN_MOTION_DOT": 1.356e-05, "MEAN_MOTION_DDOT": 0}, "tle": {"line1": "1 35208U 99025DPQ 25331.79992267  .00001356  00000+0  91687-3 0  9996", "line2": "2 35208  98.9056 351.4058 0100637 197.6504 162.1154 13.99599013903542"}}, "geometry": {"type": "Point", "coordinates": [18.152836149237885, -65.53015615168293]}}]}